#chainName,phone,storeID,gstNumber,branchName,address line 1,address line2, city, prov, Country, postcode
,780-437-3363, ,,Southgate Centre,5015,111 St NW,Edmonton,AB,Canada,T6H 4M6
,780-466-1460, ,,Bonnie Doon Centre,173-8330,82 Ave NW,Edmonton,AB,Canada,T6C 4E3
,780-436-6555, ,,Windermere,5368,Windermere Blvd NW,Edmonton,AB,Canada,T6W 0L9
,780-455-5965, ,,Westmount Mall,105-13336,114 Avenue,Edmonton,AB,Canada,T5M 3L7
,587-520-8088, ,,,6819,177 St NW,Edmonton,AB,Canada,T5T 4K3
,780-429-5979, ,,,11511,104 Ave NW,Edmonton,AB,Canada,T5K 2S2
,780-430-9011, ,,,14307,23 Ave NW,Edmonton,AB,Canada,T6R 3E7
,780-461-4403, ,,,10016,21 Avenue NW,Edmonton,AB,Canada,T6N 0A1
,780-498-0862, ,,,5509,23 Ave NW,Edmonton,AB,Canada,T6L 7B9
,780-479-1372, ,,Kingsway Garden Mall,11,Kingsway Garden Mall NW,Edmonton,AB,Canada,T5G 3A6
,780-433-5210, ,,Students' Union Building,8900,114 Street,Edmonton,AB,Canada,T6G 2J7
,780-431-1744, ,,,8912,112 St NW,Edmonton,AB,Canada,T6G 2C5
,780-457-3360, ,,,15841,97 St NW,Edmonton,AB,Canada,T5X 0C7
,780-473-1218, ,,,276,Londonderry Mall NW,Edmonton,AB,Canada,T5C 3C8
,780-425-9704, ,,Commerce Place,277-10155,102 Street,Edmonton,AB,Canada,T5J 4G8
,780-489-4838, ,,Terra Losa,9794,170 St GD Stn Main,Edmonton,AB,Canada,T5J 2G8
,780-461-5133, ,,Millwoods Town Centre,2331,66 St NW,Edmonton,AB,Canada,T6K 4B4
,780-478-3361, ,,Skyview Power Center,13322,137 Ave NW,Edmonton,AB,Canada,T5L 4Z6
,780-417-8806, ,,,53-301,Wye Rd,Sherwood Park,AB,Canada,T8B 0A4
,780-417-7006, ,,,41-2020,Sherwood Dr,Sherwood Park,AB,Canada,T8A 5P7
,780-998-1933, ,,,113-8701,94 St,Fort Saskatchewan,AB,Canada,T8L 4P7
,780-419-3362, ,,,110-760,St Albert Trail,St Albert,AB,Canada,T8N 3P8
,780-960-0111, ,,,124-16,Westway Rd,Spruce Grove,AB,Canada,T7X 3X3
,780-980-9272, ,,,104-5311,Discovery Way,Leduc,AB,Canada,T9E 8N4
,780-737-1336, ,,,132-5802,50 Street,Beaumont,AB,Canada,T4X 1T8
,780-955-0025, ,,,4-205,19 Ave,Nisku,AB,Canada,T9E 0W8
,780-460-0464, ,,Tudor Glen,3510,Tudor Glen,St. Albert,AB,Canada,T8N 3V3
,780-417-0866, ,,Emerald Hill,215-,5000 Emerald Dr,Sherwood Park,AB,Canada,T8H 0P5
